FENGYUN 1C DEB          
1 31973U 99025CPA 17345.03229158  .00000942  00000-0  49503-3 0  9997
2 31973  98.3778  66.4040 0106632  87.6174 273.7204 14.13394969541181
